0 COSMOS 1188 DEB
1 26677U 80050G   13286.06038764 -.00000419  00000-0  00000+0 0  6569
2 26677 071.8566 008.3972 6028852 333.8348 005.4928 01.93210472139656
0 COSMOS 1188 DEB
1 26677U 80050G   13286.07534838 -.00000419  00000-0  00000+0 0  6574
2 26677 071.8538 008.4086 6029388 333.8186 015.8886 01.93210553139655
0 COSMOS 1188 DEB
1 26677U 80050G   13287.62969466 -.00000305  00000-0  00000+0 0  6580
2 26677 071.8583 008.3313 6029562 333.7468 017.0148 01.93211538139685
0 COSMOS 1188 DEB
1 26677U 80050G   13293.32276373  .00000186  00000-0  00000+0 0  6599
2 26677 071.8701 008.0483 6027829 333.5280 016.7942 01.93207911139796
